ION SCV-008             
1 55051U 23001AU  26068.82429008  .00008336  00000+0  31423-3 0  9992
2 55051  97.5676 163.6060 0015192   8.5420 351.6074 15.27226640176169
STARLINK-34181          
1 64144U 25111X   26068.43060481  .00030236  00000+0  11024-2 0  9990
2 64144  42.9980  79.3386 0001586 254.8289 105.2387 15.27619505 45429
